STARLINK-2387           
1 47806U 21018V   26068.72330030  .00009694  00000+0  33908-3 0  9990
2 47806  53.1618 242.2846 0001193  76.9865 283.1269 15.30192239276791
2025-313BC              
1 67298U 25313BC  26068.18968176  .00075331  00000+0  26410-2 0  9997
2 67298  97.3985 144.8110 0008478 328.9209  31.1528 15.29126358  7890
